STARLINK-1156           
1 45054U 20006L   25328.90448053  .00002808  00000+0  20733-3 0  9994
2 45054  53.0556  37.0198 0001176  96.1303 263.9820 15.06395488320665
STARLINK-1159           
1 45057U 20006P   25329.08491860  .00105026  00000+0  16070-2 0  9995
2 45057  53.0544  28.8043 0003882  12.4043 347.7061 15.53566025320803
STARLINK-1166           
1 45060U 20006S   25328.59854452  .00010392  00000+0  71543-3 0  9992
2 45060  53.0547  38.3924 0001354  99.6250 260.4893 15.06404838320628
STARLINK-1169           
1 45061U 20006T   25328.60591410  .00007447  00000+0  51823-3 0  9993
2 45061  53.0550  38.3582 0001494 113.3223 246.7923 15.06404337320627
STARLINK-1171           
1 45062U 20006U   25328.90702350  .00067997  00000+0  18604-2 0  9999
2 45062  53.0543  29.8229 0007851 358.5574   1.5404 15.36721611320775
STARLINK-1133           
1 45064U 20006W   25329.13485787  .00004046  00000+0  29044-3 0  9996
2 45064  53.0555  15.9831 0001516  98.8708 261.2453 15.06393710320984
STARLINK-1167           
1 45071U 20006AD  25328.82891326  .00001211  00000+0  10020-3 0  9994
2 45071  53.0550  17.3559 0001410  82.5995 277.5154 15.06393777320937
STARLINK-1168           
1 45072U 20006AE  25328.83260478  .00003909  00000+0  28112-3 0  9991
2 45072  53.0535  17.3395 0001453  63.9623 296.1515 15.06407447320935
STARLINK-1172           
1 45074U 20006AG  25329.10905410  .00003424  00000+0  24870-3 0  9995
2 45074  53.0540  16.1011 0001451  98.4691 261.6462 15.06390564320974
STARLINK-1153           
1 45080U 20006AN  25329.15328250  .00007115  00000+0  49618-3 0  9996
2 45080  53.0549  15.9003 0001416  96.0555 264.0595 15.06390447320987
STARLINK-1151           
1 45081U 20006AP  25329.13855877  .00009377  00000+0  64752-3 0  9993
2 45081  53.0560  16.0460 0001486  89.0774 271.0385 15.06402881320983
STARLINK-1190           
1 45083U 20006AR  25329.22036624  .03346539  12058-4  78610-3 0  9992
2 45083  53.0287 309.0564 0003282 268.0540  92.0125 16.28994283321922
STARLINK-1185           
1 45087U 20006AV  25329.04823016  .00003462  00000+0  25122-3 0  9996
2 45087  53.0551 356.3739 0001150 101.0165 259.0953 15.06393412321252
STARLINK-1183           
1 45088U 20006AW  25329.13669914  .00003247  00000+0  23680-3 0  9990
2 45088  53.0559 355.9745 0001490  94.1248 265.9911 15.06392726321262
STARLINK-1142           
1 45093U 20006BB  25329.25004630  .00435190  00000+0  29329-2 0  9998
2 45093  53.0303 278.0149 0008405  99.7028 130.7098 15.73285106  5898
STARLINK-1152           
1 45096U 20006BE  25329.03351586  .00073382  00000+0  27693-2 0  9995
2 45096  53.0455 335.3944 0004094 304.7579  55.3033 15.26382449321549
