[{"OBJECT_NAME":"STARLINK-1156","OBJECT_ID":"2020-006L","EPOCH":"2025-11-24T21:42:27.117792","MEAN_MOTION":15.06395488,"ECCENTRICITY":0.0001176,"INCLINATION":53.0556,"RA_OF_ASC_NODE":37.0198,"ARG_OF_PERICENTER":96.1303,"MEAN_ANOMALY":263.982,"EPHEMERIS_TYPE":0,"CLASSIFICATION_TYPE":"U","NORAD_CAT_ID":45054,"ELEMENT_SET_NO":999,"REV_AT_EPOCH":32066,"BSTAR":0.00020733,"MEAN_MOTION_DOT":2.808e-5,"MEAN_MOTION_DDOT":0},{"OBJECT_NAME":"STARLINK-1159","OBJECT_ID":"2020-006P","EPOCH":"2025-11-25T02:02:16.967040","MEAN_MOTION":15.53566025,"ECCENTRICITY":0.0003882,"INCLINATION":53.0544,"RA_OF_ASC_NODE":28.8043,"ARG_OF_PERICENTER":12.4043,"MEAN_ANOMALY":347.7061,"EPHEMERIS_TYPE":0,"CLASSIFICATION_TYPE":"U","NORAD_CAT_ID":45057,"ELEMENT_SET_NO":999,"REV_AT_EPOCH":32080,"BSTAR":0.001607,"MEAN_MOTION_DOT":0.00105026,"MEAN_MOTION_DDOT":0},{"OBJECT_NAME":"STARLINK-1166","OBJECT_ID":"2020-006S","EPOCH":"2025-11-24T14:21:54.246528","MEAN_MOTION":15.06404838,"ECCENTRICITY":0.00013541,"INCLINATION":53.0547,"RA_OF_ASC_NODE":38.3924,"ARG_OF_PERICENTER":99.625,"MEAN_ANOMALY":260.4893,"EPHEMERIS_TYPE":0,"CLASSIFICATION_TYPE":"U","NORAD_CAT_ID":45060,"ELEMENT_SET_NO":999,"REV_AT_EPOCH":32062,"BSTAR":0.00071542682,"MEAN_MOTION_DOT":0.00010392,"MEAN_MOTION_DDOT":0},{"OBJECT_NAME":"STARLINK-1169","OBJECT_ID":"2020-006T","EPOCH":"2025-11-24T14:32:30.978240","MEAN_MOTION":15.06404337,"ECCENTRICITY":0.0001494,"INCLINATION":53.055,"RA_OF_ASC_NODE":38.3582,"ARG_OF_PERICENTER":113.3223,"MEAN_ANOMALY":246.7923,"EPHEMERIS_TYPE":0,"CLASSIFICATION_TYPE":"U","NORAD_CAT_ID":45061,"ELEMENT_SET_NO":999,"REV_AT_EPOCH":32062,"BSTAR":0.0005182281,"MEAN_MOTION_DOT":7.447e-5,"MEAN_MOTION_DDOT":0},{"OBJECT_NAME":"STARLINK-1171","OBJECT_ID":"2020-006U","EPOCH":"2025-11-24T21:46:06.830400","MEAN_MOTION":15.36721611,"ECCENTRICITY":0.0007851,"INCLINATION":53.0543,"RA_OF_ASC_NODE":29.8229,"ARG_OF_PERICENTER":358.5574,"MEAN_ANOMALY":1.5404,"EPHEMERIS_TYPE":0,"CLASSIFICATION_TYPE":"U","NORAD_CAT_ID":45062,"ELEMENT_SET_NO":999,"REV_AT_EPOCH":32077,"BSTAR":0.0018604,"MEAN_MOTION_DOT":0.00067997,"MEAN_MOTION_DDOT":0},{"OBJECT_NAME":"STARLINK-1133","OBJECT_ID":"2020-006W","EPOCH":"2025-11-25T03:14:11.719968","MEAN_MOTION":15.0639371,"ECCENTRICITY":0.0001516,"INCLINATION":53.0555,"RA_OF_ASC_NODE":15.9831,"ARG_OF_PERICENTER":98.8708,"MEAN_ANOMALY":261.2453,"EPHEMERIS_TYPE":0,"CLASSIFICATION_TYPE":"U","NORAD_CAT_ID":45064,"ELEMENT_SET_NO":999,"REV_AT_EPOCH":32098,"BSTAR":0.00029044,"MEAN_MOTION_DOT":4.046e-5,"MEAN_MOTION_DDOT":0},{"OBJECT_NAME":"STARLINK-1167","OBJECT_ID":"2020-006AD","EPOCH":"2025-11-24T19:53:38.105664","MEAN_MOTION":15.06393777,"ECCENTRICITY":0.000141,"INCLINATION":53.055,"RA_OF_ASC_NODE":17.3559,"ARG_OF_PERICENTER":82.5995,"MEAN_ANOMALY":277.5154,"EPHEMERIS_TYPE":0,"CLASSIFICATION_TYPE":"U","NORAD_CAT_ID":45071,"ELEMENT_SET_NO":999,"REV_AT_EPOCH":32093,"BSTAR":0.0001002,"MEAN_MOTION_DOT":1.211e-5,"MEAN_MOTION_DDOT":0},{"OBJECT_NAME":"STARLINK-1168","OBJECT_ID":"2020-006AE","EPOCH":"2025-11-24T19:58:57.052992","MEAN_MOTION":15.06407447,"ECCENTRICITY":0.0001453,"INCLINATION":53.0535,"RA_OF_ASC_NODE":17.3395,"ARG_OF_PERICENTER":63.9623,"MEAN_ANOMALY":296.1515,"EPHEMERIS_TYPE":0,"CLASSIFICATION_TYPE":"U","NORAD_CAT_ID":45072,"ELEMENT_SET_NO":999,"REV_AT_EPOCH":32093,"BSTAR":0.00028112,"MEAN_MOTION_DOT":3.909e-5,"MEAN_MOTION_DDOT":0},{"OBJECT_NAME":"STARLINK-1172","OBJECT_ID":"2020-006AG","EPOCH":"2025-11-25T02:37:02.274240","MEAN_MOTION":15.06390564,"ECCENTRICITY":0.0001451,"INCLINATION":53.054,"RA_OF_ASC_NODE":16.1011,"ARG_OF_PERICENTER":98.4691,"MEAN_ANOMALY":261.6462,"EPHEMERIS_TYPE":0,"CLASSIFICATION_TYPE":"U","NORAD_CAT_ID":45074,"ELEMENT_SET_NO":999,"REV_AT_EPOCH":32097,"BSTAR":0.0002487,"MEAN_MOTION_DOT":3.424e-5,"MEAN_MOTION_DDOT":0},{"OBJECT_NAME":"STARLINK-1153","OBJECT_ID":"2020-006AN","EPOCH":"2025-11-25T03:40:43.608000","MEAN_MOTION":15.06390447,"ECCENTRICITY":0.0001416,"INCLINATION":53.0549,"RA_OF_ASC_NODE":15.9003,"ARG_OF_PERICENTER":96.0555,"MEAN_ANOMALY":264.0595,"EPHEMERIS_TYPE":0,"CLASSIFICATION_TYPE":"U","NORAD_CAT_ID":45080,"ELEMENT_SET_NO":999,"REV_AT_EPOCH":32098,"BSTAR":0.00049618,"MEAN_MOTION_DOT":7.115e-5,"MEAN_MOTION_DDOT":0},{"OBJECT_NAME":"STARLINK-1151","OBJECT_ID":"2020-006AP","EPOCH":"2025-11-25T03:19:31.477728","MEAN_MOTION":15.06402881,"ECCENTRICITY":0.0001486,"INCLINATION":53.056,"RA_OF_ASC_NODE":16.046,"ARG_OF_PERICENTER":89.0774,"MEAN_ANOMALY":271.0385,"EPHEMERIS_TYPE":0,"CLASSIFICATION_TYPE":"U","NORAD_CAT_ID":45081,"ELEMENT_SET_NO":999,"REV_AT_EPOCH":32098,"BSTAR":0.00064752,"MEAN_MOTION_DOT":9.377e-5,"MEAN_MOTION_DDOT":0},{"OBJECT_NAME":"STARLINK-1190","OBJECT_ID":"2020-006AR","EPOCH":"2025-11-25T05:17:19.643136","MEAN_MOTION":16.28994283,"ECCENTRICITY":0.0003282,"INCLINATION":53.0287,"RA_OF_ASC_NODE":309.0564,"ARG_OF_PERICENTER":268.054,"MEAN_ANOMALY":92.0125,"EPHEMERIS_TYPE":0,"CLASSIFICATION_TYPE":"U","NORAD_CAT_ID":45083,"ELEMENT_SET_NO":999,"REV_AT_EPOCH":32192,"BSTAR":0.0007861,"MEAN_MOTION_DOT":0.03346539,"MEAN_MOTION_DDOT":1.2058e-5},{"OBJECT_NAME":"STARLINK-1185","OBJECT_ID":"2020-006AV","EPOCH":"2025-11-25T01:09:27.085824","MEAN_MOTION":15.06393412,"ECCENTRICITY":0.000115,"INCLINATION":53.0551,"RA_OF_ASC_NODE":356.3739,"ARG_OF_PERICENTER":101.0165,"MEAN_ANOMALY":259.0953,"EPHEMERIS_TYPE":0,"CLASSIFICATION_TYPE":"U","NORAD_CAT_ID":45087,"ELEMENT_SET_NO":999,"REV_AT_EPOCH":32125,"BSTAR":0.00025122,"MEAN_MOTION_DOT":3.462e-5,"MEAN_MOTION_DDOT":0},{"OBJECT_NAME":"STARLINK-1183","OBJECT_ID":"2020-006AW","EPOCH":"2025-11-25T03:16:50.805696","MEAN_MOTION":15.06392726,"ECCENTRICITY":0.000149,"INCLINATION":53.0559,"RA_OF_ASC_NODE":355.9745,"ARG_OF_PERICENTER":94.1248,"MEAN_ANOMALY":265.9911,"EPHEMERIS_TYPE":0,"CLASSIFICATION_TYPE":"U","NORAD_CAT_ID":45088,"ELEMENT_SET_NO":999,"REV_AT_EPOCH":32126,"BSTAR":0.0002368,"MEAN_MOTION_DOT":3.247e-5,"MEAN_MOTION_DDOT":0},{"OBJECT_NAME":"STARLINK-1142","OBJECT_ID":"2020-006BB","EPOCH":"2025-11-25T06:00:04.000320","MEAN_MOTION":15.73285106,"ECCENTRICITY":0.0008405,"INCLINATION":53.0303,"RA_OF_ASC_NODE":278.0149,"ARG_OF_PERICENTER":99.7028,"MEAN_ANOMALY":130.7098,"EPHEMERIS_TYPE":0,"CLASSIFICATION_TYPE":"U","NORAD_CAT_ID":45093,"ELEMENT_SET_NO":999,"REV_AT_EPOCH":589,"BSTAR":0.0029329,"MEAN_MOTION_DOT":0.0043519,"MEAN_MOTION_DDOT":0},{"OBJECT_NAME":"STARLINK-1152","OBJECT_ID":"2020-006BE","EPOCH":"2025-11-25T00:48:15.770304","MEAN_MOTION":15.26382449,"ECCENTRICITY":0.0004094,"INCLINATION":53.0455,"RA_OF_ASC_NODE":335.3944,"ARG_OF_PERICENTER":304.7579,"MEAN_ANOMALY":55.3033,"EPHEMERIS_TYPE":0,"CLASSIFICATION_TYPE":"U","NORAD_CAT_ID":45096,"ELEMENT_SET_NO":999,"REV_AT_EPOCH":32154,"BSTAR":0.0027693,"MEAN_MOTION_DOT":0.00073382,"MEAN_MOTION_DDOT":0}]
